JILIN-1 GAOFEN 2A       
1 44777U 19075A   26112.91705593  .00010592  00000+0  28747-3 0  9999
2 44777  97.4961 195.4818 0004897 278.4768  81.5921 15.37781003356389
NINGXIA-1 1             
1 44779U 19076A   26112.95656637 -.00000075  00000+0  35285-4 0  9992
2 44779  45.0059  66.6633 0012144 258.5987 101.3483 14.02031436330103
NINGXIA-1 5             
1 44783U 19076E   26112.97142339 -.00000265  00000+0 -87758-4 0  9992
2 44783  45.0054  65.9566 0011825 248.7230 111.2342 14.02014357330025
KL-ALPHA A              
1 44785U 19077A   26112.92660469  .00000056  00000+0  62440-4 0  9996
2 44785  88.9244 228.6038 0009004 269.7320  90.2803 13.56036648318248
CARTOSAT-3              
1 44804U 19081A   26112.89774780  .00003137  00000+0  15183-3 0  9995
2 44804  97.4340 175.6395 0011546 351.4066   8.6969 15.19262788355074
JILIN-1 GAOFEN 2B       
1 44836U 19086A   26112.92852192  .00004831  00000+0  22653-3 0  9995
2 44836  97.4899 185.2873 0015354 148.1820 212.0345 15.20051837352097
ANGELS                  
1 44876U 19092D   26112.85505975  .01088025  78267-3  93494-3 0  9995
2 44876  97.3961 332.0389 0003062 236.6414 123.4579 16.13599098353655
TIANQIN 1 (CAS-6)       
1 44879U 19093A   26112.94883955  .00000596  00000+0  59543-4 0  9996
2 44879  97.7792 197.2017 0010148 233.9591 126.0690 14.95152236343796
ETRSS-1                 
1 44880U 19093B   26112.97076861  .00001805  00000+0  16797-3 0  9998
2 44880  97.7804 197.6358 0010389 232.7108 127.3167 14.95539340343802
TIANYAN 01              
1 44881U 19093C   26112.91389770  .00000849  00000+0  10213-3 0  9993
2 44881  97.7546 186.4912 0011982 269.6298  90.3545 14.86428994343202
TIANYAN 02              
1 44882U 19093D   26112.93048968  .00005237  00000+0  37766-3 0  9995
2 44882  97.7907 207.2313 0013717 204.7256 155.3313 15.04510435344303
CBERS 4A                
1 44883U 19093E   26112.91358797  .00000407  00000+0  58269-4 0  9994
2 44883  97.7520 181.9213 0002629  40.0214 320.1193 14.81610337342893
WEILAI 1R               
1 44884U 19093F   26112.96806693  .00002279  00000+0  18716-3 0  9994
2 44884  97.7834 202.8050 0013141 214.6489 145.3880 15.00154920344141
FLORIPASAT-1            
1 44885U 19093G   26112.92232972  .00004121  00000+0  30842-3 0  9996
2 44885  97.7902 206.7832 0010281 252.3423 107.6679 15.03272142344347
SHUNTIAN                
1 44886U 19093H   26112.92350163  .00001854  00000+0  17528-3 0  9996
2 44886  97.7984 201.3821 0010349 245.2796 114.7348 14.94871801343927
2019-093L               
1 44889U 19093L   26112.94606295  .00001660  00000+0  16007-3 0  9997
2 44889  97.7549 191.8702 0010984 230.9636 129.0607 14.94222280343554
ELEKTRO-L 3             
1 44903U 19095A   26112.96996817 -.00000107  00000+0  00000+0 0  9998
2 44903   0.1148  74.2960 0001061 292.4670 269.3914  1.00271078 23153
GONETS-M 14             
1 44905U 19096A   26112.98733778  .00000182  00000+0  12452-2 0  9997
2 44905  82.5191 118.8660 0012039 274.9379  85.0326 12.42869337286821
GONETS-M 15             
1 44906U 19096B   26112.93630744  .00000080  00000+0  50528-3 0  9996
2 44906  82.5211 119.3502 0014145 299.6235  60.3435 12.42869696286781
GONETS-M 16             
1 44907U 19096C   26112.96348395  .00000125  00000+0  82850-3 0  9991
2 44907  82.5156 118.3118 0010669 345.8257  14.2521 12.42890432286772
RS-44 & BREEZE-KM R/B   
1 44909U 19096E   26112.96558564  .00000017  00000+0  30314-4 0  9993
2 44909  82.5262  16.3999 0216380 273.5559  84.0819 12.79747959295282
JILIN-1 KUANFU 01       
1 45016U 20003A   26112.90687753  .00002222  00000+0  13896-3 0  9995
2 45016  97.5041 187.9497 0011173 127.8932 232.3310 15.10394299346981
XINGYUN-2 01            
1 45602U 20028A   26112.93687030  .00001286  00000+0  79500-4 0  9998
2 45602  97.4867 106.4480 0010447  42.2015 318.0018 15.11556823326495
XINGYUN-2 02            
1 45603U 20028B   26112.97206565  .00001213  00000+0  75726-4 0  9999
2 45603  97.5092 119.9411 0012734  99.6719 260.5950 15.11299572326499
HAIYANG-1D              
1 45721U 20036A   26112.92746954  .00000001  00000+0  15852-4 0  9993
2 45721  98.4527  55.8185 0002088 348.3782  11.7355 14.34222828307054
M2 PATHFINDER           
1 45727U 20037E   26112.77981565  .00001385  00000+0  10360-3 0  9996
2 45727  97.8172 303.3925 0011110 349.1961  10.9025 15.04429578317163
GAOFEN DUOMO (GFDM)     
1 45856U 20042A   26112.92061255  .00000271  00000+0  45631-4 0  9990
2 45856  97.7782 174.8070 0009502 249.8407 110.1781 14.76800863312858
ZIYUAN 3-03 (ZY 3-03)   
1 45939U 20051A   26112.93668359  .00003040  00000+0  13882-3 0  9990
2 45939  97.2854 182.4369 0006715 131.7369 228.4442 15.21304178318942
NEMO-HD                 
1 46277U 20061F   26112.91280932  .00007686  00000+0  17362-3 0  9999
2 46277  97.1959 175.4580 0001249 131.8002 228.3353 15.43465357313454
3CAT-5A                 
1 46292U 20061W   26112.74312384  .00010916  00000+0  23834-3 0  9995
2 46292  97.2444 175.7602 0001177  34.4999 325.6326 15.44373708312462
3CAT-5B                 
1 46293U 20061X   26112.90273802  .00013408  00000+0  28025-3 0  9991
2 46293  97.2440 176.7977 0001139  24.7796 335.3508 15.45610130312510
NAPA-1                  
1 46320U 20061BA  26112.96679032  .00040008  00000+0  46689-3 0  9995
2 46320  97.2501 185.6068 0001837 147.5155 212.6216 15.61534251313103
JILIN-1 GAOFEN 3B       
1 46454U 20065A   26112.94606013  .01271524  11954-2  97226-3 0  9990
2 46454  97.2088 173.4849 0007291 234.9023 125.1580 16.15341976311760
JILIN-1 GAOFEN 3E       
1 46457U 20065D   26112.94850850  .00036687  00000+0  49097-3 0  9991
2 46457  97.2325 164.5107 0011284  15.7756 344.3849 15.57857755311147
JILIN-1 GAOFEN 3F       
1 46458U 20065E   26112.89183046  .00031244  00000+0  44997-3 0  9990
2 46458  97.2283 162.0163 0012432   2.3433 357.7878 15.55890365311092
JILIN-1 GAOFEN 3G       
1 46459U 20065F   26112.89947410  .00046673  00000+0  51365-3 0  9993
2 46459  97.2355 168.0618 0010148 242.8982 117.1242 15.62959988311285
JILIN-1 GAOFEN 3H       
1 46460U 20065G   26112.90478691  .00040880  00000+0  48965-3 0  9993
2 46460  97.2301 164.6637 0008649 175.2702 184.8639 15.60806914311248
JILIN-1 GAOFEN 3J       
1 46462U 20065J   26112.89747814  .00371555  57212-4  91863-3 0  9992
2 46462  97.2242 172.2348 0005307 219.9688 140.1198 15.95931839311670
HAIYANG-2C              
1 46469U 20066A   26112.93256007 -.00000103  00000+0 -20010-4 0  9999
2 46469  65.9995 352.8571 0010954 243.6873 116.3070 13.83373971281854
HJ-2A                   
1 46478U 20067A   26112.93585678  .00000071  00000+0  17286-4 0  9992
2 46478  97.8828 192.6089 0004912  85.8106 274.3666 14.76538555300109
HJ-2B                   
1 46479U 20067B   26112.97188674  .00000261  00000+0  44640-4 0  9997
2 46479  97.8890 193.6246 0001442  77.5591 282.5780 14.76547375300115
GONETS-M 17             
1 46486U 20068A   26112.98776218 -.00000030  00000+0 -29081-3 0  9991
2 46486  82.5029  21.8388 0022481 153.0253 207.2000 12.42870589252301
GONETS-M 18             
1 46487U 20068B   26112.87090850  .00000046  00000+0  26141-3 0  9990
2 46487  82.4983  21.0506 0019837 149.2368 210.9879 12.42869944252273
GONETS-M 19             
1 46488U 20068C   26112.92768200  .00000004  00000+0 -40080-4 0  9992
2 46488  82.5007  21.4555 0013313 162.7958 197.3576 12.42890169252385
DEKART                  
1 46493U 20068H   26112.98781369  .00008929  00000+0  25650-3 0  9993
2 46493  97.8772 118.3601 0011093 116.5592 243.6789 15.36034852307298
NORBI                   
1 46494U 20068J   26112.99116282  .00016187  00000+0  33228-3 0  9996
2 46494  97.8673 124.1906 0009126  98.3366 261.8917 15.46074102307672
SALSAT                  
1 46495U 20068K   26112.53179599  .00005743  00000+0  20683-3 0  9994
2 46495  97.8870 112.2462 0011305 131.2384 228.9830 15.28953048306858
ICEYE-X6                
1 46497U 20068M   26112.91792648  .00002585  00000+0  19085-3 0  9999
2 46497  98.0976 103.9659 0005827 277.3833  82.6729 15.04216424304920
NETSAT-4                
1 46504U 20068U   26112.73925886  .00011789  00000+0  27856-3 0  9991
2 46504  97.8636 116.6057 0006937 142.5863 217.5867 15.41995241307221
NETSAT-3                
1 46505U 20068V   26112.89647064  .00013513  00000+0  33231-3 0  9999
2 46505  97.8681 115.0654 0006210 155.2382 204.9162 15.40752104307168
NETSAT-1                
1 46506U 20068W   26112.94828378  .00009253  00000+0  29034-3 0  9997
2 46506  97.8764 110.0817 0004877 176.3548 183.7730 15.33275991306836
NETSAT-2                
1 46507U 20068X   26112.97615425  .00016292  00000+0  36359-3 0  9997
2 46507  97.8652 116.5767 0004577 158.2530 201.8912 15.43636692307212
TIANQI-6                
1 46810U 20076D   26112.88589751  .00003041  00000+0  20176-3 0  9993
2 46810  35.0002  27.7673 0009744  36.6064 323.5310 15.06801089300235
KSM1-C                  
1 46906U 20081B   26112.94682939  .00006883  00000+0  26658-3 0  9992
2 46906  36.8945  39.7292 0000317 109.3498 250.7285 15.25803295300720
KSM1-D                  
1 46907U 20081C   26112.94331153  .00006586  00000+0  26994-3 0  9995
2 46907  36.8974  47.7332 0002884 169.1250 190.9562 15.23928860300668
KSM1-A                  
1 46912U 20081H   26112.92275441  .00006759  00000+0  26753-3 0  9991
2 46912  36.8974  41.8700 0003767 246.4097 113.6257 15.25085539300737
R2                      
1 46913U 20081J   26112.14018562  .00006615  00000+0  26565-3 0  9997
2 46913  36.8991  46.3968 0006327 179.8265 180.2487 15.24603658303425
KSM1-B                  
1 46914U 20081K   26112.93936623  .00006038  00000+0  24927-3 0  9991
2 46914  36.9026  48.2335 0005121 188.6354 171.4307 15.23729855303759
GONETS-M 20             
1 47227U 20091A   26112.94626057  .00000002  00000+0 -57359-4 0  9990
2 47227  82.5060 336.7848 0020307 303.2673  56.6461 12.42892044244217
